STARLINK-32807          
1 62845U 25019S   26198.65688314  .00001991  00000+0  81859-4 0  9993
2 62845  42.9975  67.5549 0000467 239.8861 120.1945 15.27576902 82212
STARLINK-32804          
1 62846U 25019T   26198.63290603  .00012199  00000+0  45183-3 0  9993
2 62846  43.0014  75.1719 0001209 278.5279  81.5435 15.27598916 82124
STARLINK-32781          
1 62848U 25019V   26198.63164698  .00006514  00000+0  24597-3 0  9999
2 62848  42.9993  75.1593 0000726 253.3056 106.7716 15.27587504 82120
STARLINK-32809          
1 62849U 25019W   26198.08414289  .00019747  00000+0  72423-3 0  9996
2 62849  43.0003  77.9259 0001444 268.9280  91.1406 15.27623451 82049
STARLINK-32868          
1 62854U 25022A   26198.49421961  .00006996  00000+0  21808-3 0  9999
2 62854  53.1564 243.8638 0001272  88.4148 271.7000 15.34387534 82628
STARLINK-32867          
1 62855U 25022B   26198.13753742  .00012879  00000+0  39161-3 0  9994
2 62855  53.1600 247.3116 0001474  44.0550 316.0570 15.34403003 81735
STARLINK-32860          
1 62856U 25022C   26198.56613767  .00001330  00000+0  50507-4 0  9992
2 62856  53.1571 245.0181 0001069  88.3584 271.7541 15.34396170 81807
STARLINK-32873          
1 62857U 25022D   26198.50731300  .00008431  00000+0  26042-3 0  9996
2 62857  53.1579 245.3638 0000872  92.0413 268.0689 15.34394190 81790
STARLINK-32866          
1 62858U 25022E   26198.50263196  .00005334  00000+0  16890-3 0  9999
2 62858  53.1570 243.9138 0000882  80.4149 279.6953 15.34397771 81812
STARLINK-32869          
1 62859U 25022F   26198.13122192  .00013696  00000+0  41565-3 0  9996
2 62859  53.1586 247.2617 0000974  91.7886 268.3228 15.34406685 81730
STARLINK-32831          
1 62860U 25022G   26198.42534393  .00006771  00000+0  21138-3 0  9990
2 62860  53.1560 245.5623 0000713  95.2846 264.8237 15.34394573 81775
STARLINK-32864          
1 62862U 25022J   26198.56823885  .00007352  00000+0  22855-3 0  9997
2 62862  53.1573 245.0188 0001371 126.6191 233.4938 15.34394721 81804
STARLINK-32808          
1 62863U 25022K   26198.13543422  .00011693  00000+0  35666-3 0  9994
2 62863  53.1584 247.3059 0001517  77.4608 282.6564 15.34401021 81732
STARLINK-32841          
1 62865U 25022M   26198.51152054  .00008490  00000+0  26217-3 0  9998
2 62865  53.1584 245.3879 0000868 117.7760 242.3330 15.34392494 81789
STARLINK-32695          
1 62866U 25022N   26198.49842602  .00005831  00000+0  18357-3 0  9993
2 62866  53.1578 243.8875 0001064  83.0243 277.0881 15.34398017 81819
STARLINK-32846          
1 62867U 25022P   26198.45059160  .00005624  00000+0  17749-3 0  9993
2 62867  53.1591 245.7005 0001228  90.0638 270.0505 15.34395102 81783
STARLINK-32822          
1 62868U 25022Q   26198.10808177  .00008852  00000+0  27279-3 0  9991
2 62868  53.1569 247.1396 0002068  55.1766 304.9431 15.34402130 81735
STARLINK-32813          
1 62869U 25022R   26198.12912103  .00008292  00000+0  25627-3 0  9992
2 62869  53.1588 247.2691 0000796  77.1423 282.9668 15.34398524 81734
STARLINK-32861          
1 62870U 25022S   26198.50052751  .00005685  00000+0  17928-3 0  9998
2 62870  53.1571 243.9015 0001202 121.8165 238.2955 15.34398010 81816
STARLINK-32814          
1 62871U 25022T   26198.16690178  .00011441  00000+0  34922-3 0  9992
2 62871  53.1559 246.7952 0000150 318.5106  41.5885 15.34397832 81745
STARLINK-32849          
1 62872U 25022U   26197.58278523  .00008633  00000+0  26636-3 0  9996
2 62872  53.1567 249.5511 0001263  73.8967 286.2174 15.34397394 81651
STARLINK-32833          
1 62873U 25022V   26198.50941923  .00005810  00000+0  18296-3 0  9998
2 62873  53.1576 245.3785 0001317  64.7646 295.3493 15.34397278 81793
STARLINK-32793          
1 62874U 25022W   26197.56183412  .00007877  00000+0  24399-3 0  9991
2 62874  53.1573 250.1292 0000627  79.4171 280.6902 15.34403419 81648
STARLINK-32834          
1 62875U 25022X   26198.10596247  .00006134  00000+0  19247-3 0  9998
2 62875  53.1561 247.1186 0003307  96.1520 263.9859 15.34414523 81739
STARLINK-11371 [DTC]    
1 62879U 25024A   26198.14712929  .00118764  00000+0  91454-3 0  9998
2 62879  43.0013 121.4237 0002845 286.0784  73.9770 15.70872263 83824
STARLINK-11352 [DTC]    
1 62880U 25024B   26198.17355322  .00128346  00000+0  98498-3 0  9995
2 62880  42.9986 120.7438 0001500 301.6870  58.3851 15.70921631 83837
STARLINK-11382 [DTC]    
1 62881U 25024C   26198.19478754  .00102802  00000+0  79383-3 0  9994
2 62881  43.0020 120.9140 0002020 286.9131  73.1515 15.70867664 83831
