OBJECT_NAME,OBJECT_ID,EPOCH,MEAN_MOTION,ECCENTRICITY,INCLINATION,RA_OF_ASC_NODE,ARG_OF_PERICENTER,MEAN_ANOMALY,EPHEMERIS_TYPE,CLASSIFICATION_TYPE,NORAD_CAT_ID,ELEMENT_SET_NO,REV_AT_EPOCH,BSTAR,MEAN_MOTION_DOT,MEAN_MOTION_DDOT
STARLINK-32807,2025-019S,2026-07-17T15:45:54.703296,15.27576902,.0000467,42.9975,67.5549,239.8861,120.1945,0,U,62845,999,8221,.81859E-4,.1991E-4,0
STARLINK-32804,2025-019T,2026-07-17T15:11:23.080128,15.27598915,.000121,43.0014,75.1719,278.5279,81.5435,0,U,62846,999,8212,.45183E-3,.12199E-3,0
STARLINK-32781,2025-019V,2026-07-17T15:09:34.299072,15.27587504,.0000727,42.9993,75.1593,253.3056,106.7716,0,U,62848,999,8212,.24597E-3,.6514E-4,0
STARLINK-32809,2025-019W,2026-07-17T02:01:09.945696,15.27623451,.00014447,43.0003,77.9259,268.9280,91.1406,0,U,62849,999,8204,.72422541E-3,.19747E-3,0
STARLINK-32868,2025-022A,2026-07-17T11:51:40.574304,15.34387534,.0001273,53.1564,243.8638,88.4148,271.7000,0,U,62854,999,8262,.21808E-3,.6996E-4,0
STARLINK-32867,2025-022B,2026-07-17T03:18:03.233088,15.34403003,.00014741,53.1600,247.3116,44.0550,316.0570,0,U,62855,999,8173,.39161395E-3,.12879E-3,0
STARLINK-32860,2025-022C,2026-07-17T13:35:14.293824,15.34396170,.000107,53.1571,245.0181,88.3584,271.7541,0,U,62856,999,8180,.50507E-4,.133E-4,0
STARLINK-32873,2025-022D,2026-07-17T12:10:31.843200,15.34394190,.0000872,53.1579,245.3638,92.0413,268.0689,0,U,62857,999,8179,.26042E-3,.8431E-4,0
STARLINK-32866,2025-022E,2026-07-17T12:03:47.401344,15.34397771,.0000882,53.1570,243.9138,80.4149,279.6953,0,U,62858,999,8181,.1689E-3,.5334E-4,0
STARLINK-32869,2025-022F,2026-07-17T03:08:57.573888,15.34406685,.00009745,53.1586,247.2617,91.7886,268.3228,0,U,62859,999,8173,.41564912E-3,.13696E-3,0
STARLINK-32831,2025-022G,2026-07-17T10:12:29.714688,15.34394573,.0000713,53.1560,245.5623,95.2846,264.8237,0,U,62860,999,8177,.21138E-3,.6771E-4,0
STARLINK-32864,2025-022J,2026-07-17T13:38:15.835776,15.34394721,.0001371,53.1573,245.0188,126.6191,233.4938,0,U,62862,999,8180,.22855E-3,.7352E-4,0
STARLINK-32808,2025-022K,2026-07-17T03:15:01.516608,15.34401021,.00015172,53.1584,247.3059,77.4608,282.6564,0,U,62863,999,8173,.35665751E-3,.11693E-3,0
STARLINK-32841,2025-022M,2026-07-17T12:16:35.373792,15.34392494,.0000868,53.1584,245.3879,117.7760,242.3330,0,U,62865,999,8178,.26217E-3,.849E-4,0
STARLINK-32695,2025-022N,2026-07-17T11:57:44.008128,15.34398017,.0001065,53.1578,243.8875,83.0243,277.0881,0,U,62866,999,8181,.18357E-3,.5831E-4,0
STARLINK-32846,2025-022P,2026-07-17T10:48:51.114240,15.34395102,.0001229,53.1591,245.7005,90.0638,270.0505,0,U,62867,999,8178,.17749E-3,.5624E-4,0
STARLINK-32822,2025-022Q,2026-07-17T02:35:38.264928,15.34402130,.00020688,53.1569,247.1396,55.1766,304.9431,0,U,62868,999,8173,.27279363E-3,.8852E-4,0
STARLINK-32813,2025-022R,2026-07-17T03:05:56.056992,15.34398524,.00007965,53.1588,247.2691,77.1423,282.9668,0,U,62869,999,8173,.2562661E-3,.8292E-4,0
STARLINK-32861,2025-022S,2026-07-17T12:00:45.576000,15.34398010,.0001203,53.1571,243.9015,121.8165,238.2955,0,U,62870,999,8181,.17928E-3,.5685E-4,0
STARLINK-32814,2025-022T,2026-07-17T04:00:20.313792,15.34397832,.00001502,53.1559,246.7952,318.5106,41.5885,0,U,62871,999,8174,.34922419E-3,.11441E-3,0
STARLINK-32849,2025-022U,2026-07-16T13:59:12.643872,15.34397394,.0001263,53.1567,249.5511,73.8967,286.2174,0,U,62872,999,8165,.26636E-3,.8633E-4,0
STARLINK-32833,2025-022V,2026-07-17T12:13:33.820608,15.34397278,.0001318,53.1576,245.3785,64.7646,295.3493,0,U,62873,999,8179,.18296E-3,.581E-4,0
STARLINK-32793,2025-022W,2026-07-16T13:29:02.467968,15.34403419,.0000627,53.1573,250.1292,79.4171,280.6902,0,U,62874,999,8164,.24399E-3,.7877E-4,0
STARLINK-32834,2025-022X,2026-07-17T02:32:35.157408,15.34414523,.00033071,53.1561,247.1186,96.1520,263.9859,0,U,62875,999,8173,.19247045E-3,.6134E-4,0
STARLINK-11371 [DTC],2025-024A,2026-07-17T03:31:51.970656,15.70872263,.00028456,43.0013,121.4237,286.0784,73.9770,0,U,62879,999,8382,.91454339E-3,.118764E-2,0
STARLINK-11352 [DTC],2025-024B,2026-07-17T04:09:54.998208,15.70921631,.00015006,42.9986,120.7438,301.6870,58.3851,0,U,62880,999,8383,.98497519E-3,.128346E-2,0
STARLINK-11382 [DTC],2025-024C,2026-07-17T04:40:29.643456,15.70867664,.00020202,43.0020,120.9140,286.9131,73.1515,0,U,62881,999,8383,.79383186E-3,.102802E-2,0
